INTELSAT 23 (IS-23)     
1 38867U 12057A   26201.46521564 -.00000286  00000+0  00000+0 0  9996
2 38867   0.0184  21.9708 0000454 106.0152 284.7205  1.00276252 50280
FM-6                    
1 39360U 13058A   26201.31442012 -.00000017  00000+0  00000+0 0  9993
2 39360   0.0094  30.1160 0001421 148.1432 116.6637  1.00266599 46400
INTELSAT 30 (IS-30)     
1 40271U 14062A   26201.36774456 -.00000152  00000+0  00000+0 0  9997
2 40271   0.0155  54.3746 0001657 338.6659 302.4439  1.00271769  7123
DIRECTV 14              
1 40333U 14078B   26201.44975230 -.00000127  00000+0  00000+0 0  9997
2 40333   0.0151  57.4012 0000485 335.1034 328.3806  1.00274313 42374
DIRECTV 15              
1 40663U 15026A   26201.54443075 -.00000104  00000+0  00000+0 0  9990
2 40663   0.0200  78.9838 0000411 345.6624 326.7801  1.00272555 40796
SKY MEXICO-1            
1 40664U 15026B   26201.46018895 -.00000236  00000+0  00000+0 0  9996
2 40664   0.0368 236.2260 0002620 257.1121 251.7662  1.00271139 40781
INTELSAT 34 (IS-34)     
1 40874U 15039A   26201.46478230 -.00000287  00000+0  00000+0 0  9992
2 40874   0.0124 344.1589 0000729  39.4487  26.4638  1.00271921 39968
INTELSAT 31 (IS-31)     
1 41581U 16035A   26201.45689559 -.00000152  00000+0  00000+0 0  9993
2 41581   0.0345 255.3312 0000939  57.9836  54.3526  1.00272898 37016
INTELSAT 36 (IS-36)     
1 41747U 16053A   26201.48930907 -.00000026  00000+0  00000+0 0  9996
2 41747   0.0096  21.3482 0002489 328.2603 193.2959  1.00271694 36295
INTELSAT 32E (IS-32E)   
1 41945U 17007B   26201.58341950 -.00000270  00000+0  00000+0 0  9992
2 41945   0.0128  27.7863 0000632 350.1536  87.2632  1.00273345 34564
INTELSAT 35E (IS-35E)   
1 42818U 17041A   26201.60218684 -.00000239  00000+0  00000+0 0  9995
2 42818   0.0153  62.7965 0002134  54.7632   3.1003  1.00272307 33157
INTELSAT 37E (IS-37E)   
1 42950U 17059A   26201.40090637 -.00000142  00000+0  00000+0 0  9998
2 42950   0.0189  64.3238 0002786  58.2900 301.8824  1.00271270 32396
AZERSPACE 2 (IS-38)     
1 43632U 18074A   26201.48471572  .00000135  00000+0  00000+0 0  9994
2 43632   0.0157  52.8340 0001496  57.8720  47.1546  1.00271952 28783
HORIZONS-3E             
1 43633U 18074B   26201.56225553 -.00000032  00000+0  00000+0 0  9997
2 43633   0.0423 238.4699 0000569  58.8170  12.4432  1.00271973 28679
AT&T T-16               
1 44333U 19034A   26201.44975230 -.00000116  00000+0  00000+0 0  9996
2 44333   0.0141  70.9457 0000541 287.4042   0.9248  1.00268287 25963
INTELSAT 39 (IS-39)     
1 44476U 19049B   26201.41676644  .00000032  00000+0  00000+0 0  9990
2 44476   0.0154  54.7561 0000915 308.4220 146.9867  1.00271581 25462
GALAXY 30 (G-30)        
1 46114U 20056C   26201.48933549  .00000036  00000+0  00000+0 0  9992
2 46114   0.0194  60.8176 0002185  54.0916 234.5102  1.00271386 21627
GALAXY 33 (G-33)        
1 54026U 22128A   26201.50044718  .00000077  00000+0  00000+0 0  9994
2 54026   0.0194 312.8926 0001781 169.8544 222.6719  1.00275439 14070
GALAXY 34 (G-34)        
1 54027U 22128B   26201.13315844  .00000000  00000+0  00000+0 0  9991
2 54027   0.0162  50.6641 0001707  82.0286  84.1684  1.00271722 14246
GALAXY 31 (G-31)        
1 54243U 22153A   26201.50045035  .00000012  00000+0  00000+0 0  9995
2 54243   0.0060 236.4827 0001235 245.2722 235.6674  1.00272850  7468
GALAXY 32 (G-32)        
1 54244U 22153B   26201.45776227 -.00000176  00000+0  00000+0 0  9996
2 54244   0.0102  33.2440 0001418  19.4710 319.3110  1.00271752 13474
GALAXY 35 (G-35)        
1 54741U 22170A   26201.45732892 -.00000164  00000+0  00000+0 0  9994
2 54741   0.0202  95.2696 0001993  21.4858 253.0042  1.00272216 13229
GALAXY 36 (G-36)        
1 54742U 22170B   26201.38143550 -.00000187  00000+0  00000+0 0  9999
2 54742   0.0200 136.3487 0002705 324.2650 245.8565  1.00271706 13108
GALAXY 37 (G-37)        
1 57493U 23112A   26201.49488968  .00000047  00000+0  00000+0 0  9993
2 57493   0.0191  58.1540 0002062  58.9230 232.3435  1.00272492 10876
