OBJECT_NAME,OBJECT_ID,EPOCH,MEAN_MOTION,ECCENTRICITY,INCLINATION,RA_OF_ASC_NODE,ARG_OF_PERICENTER,MEAN_ANOMALY,EPHEMERIS_TYPE,CLASSIFICATION_TYPE,NORAD_CAT_ID,ELEMENT_SET_NO,REV_AT_EPOCH,BSTAR,MEAN_MOTION_DOT,MEAN_MOTION_DDOT
INTELSAT 23 (IS-23),2012-057A,2026-07-20T11:09:54.631296,1.00276252,.00004542,0.0184,21.9708,106.0152,284.7205,0,U,38867,999,5028,0,-.286E-5,0
FM-6,2013-058A,2026-07-20T07:32:45.898368,1.00266599,.00014211,0.0094,30.1160,148.1432,116.6637,0,U,39360,999,4640,0,-.17E-6,0
INTELSAT 30 (IS-30),2014-062A,2026-07-20T08:49:33.129984,1.00271769,.00016579,0.0155,54.3746,338.6659,302.4439,0,U,40271,999,712,0,-.152E-5,0
DIRECTV 14,2014-078B,2026-07-20T10:47:38.598720,1.00274313,.0000485,0.0151,57.4012,335.1034,328.3806,0,U,40333,999,4237,0,-.127E-5,0
DIRECTV 15,2015-026A,2026-07-20T13:03:58.816800,1.00272555,.00004111,0.0200,78.9838,345.6624,326.7801,0,U,40663,999,4079,0,-.104E-5,0
SKY MEXICO-1,2015-026B,2026-07-20T11:02:40.325280,1.00271139,.000262,0.0368,236.2260,257.1121,251.7662,0,U,40664,999,4078,0,-.236E-5,0
INTELSAT 34 (IS-34),2015-039A,2026-07-20T11:09:17.190720,1.00271921,.00007292,0.0124,344.1589,39.4487,26.4638,0,U,40874,999,3996,0,-.287E-5,0
INTELSAT 31 (IS-31),2016-035A,2026-07-20T10:57:55.778976,1.00272898,.00009396,0.0345,255.3312,57.9836,54.3526,0,U,41581,999,3701,0,-.152E-5,0
INTELSAT 36 (IS-36),2016-053A,2026-07-20T11:44:36.303648,1.00271694,.00024893,0.0096,21.3482,328.2603,193.2959,0,U,41747,999,3629,0,-.26E-6,0
INTELSAT 32E (IS-32E),2017-007B,2026-07-20T14:00:07.444800,1.00273345,.00006323,0.0128,27.7863,350.1536,87.2632,0,U,41945,999,3456,0,-.27E-5,0
INTELSAT 35E (IS-35E),2017-041A,2026-07-20T14:27:08.942976,1.00272307,.00021341,0.0153,62.7965,54.7632,3.1003,0,U,42818,999,3315,0,-.239E-5,0
INTELSAT 37E (IS-37E),2017-059A,2026-07-20T09:37:18.310368,1.00271270,.00027861,0.0189,64.3238,58.2900,301.8824,0,U,42950,999,3239,0,-.142E-5,0
AZERSPACE 2 (IS-38),2018-074A,2026-07-20T11:37:59.438208,1.00271952,.00014961,0.0157,52.8340,57.8720,47.1546,0,U,43632,999,2878,0,.135E-5,0
HORIZONS-3E,2018-074B,2026-07-20T13:29:38.877792,1.00271973,.0000569,0.0423,238.4699,58.8170,12.4432,0,U,43633,999,2867,0,-.32E-6,0
AT&T T-16,2019-034A,2026-07-20T10:47:38.598720,1.00268287,.00005412,0.0141,70.9457,287.4042,0.9248,0,U,44333,999,2596,0,-.116E-5,0
INTELSAT 39 (IS-39),2019-049B,2026-07-20T10:00:08.620416,1.00271581,.00009159,0.0154,54.7561,308.4220,146.9867,0,U,44476,999,2546,0,.32E-6,0
GALAXY 30 (G-30),2020-056C,2026-07-20T11:44:38.586336,1.00271386,.00021859,0.0194,60.8176,54.0916,234.5102,0,U,46114,999,2162,0,.36E-6,0
GALAXY 33 (G-33),2022-128A,2026-07-20T12:00:38.636352,1.00275439,.00017813,0.0194,312.8926,169.8544,222.6719,0,U,54026,999,1407,0,.77E-6,0
GALAXY 34 (G-34),2022-128B,2026-07-20T03:11:44.889216,1.00271722,.00017071,0.0162,50.6641,82.0286,84.1684,0,U,54027,999,1424,0,0,0
GALAXY 31 (G-31),2022-153A,2026-07-20T12:00:38.910240,1.00272850,.00012359,0.0060,236.4827,245.2722,235.6674,0,U,54243,999,746,0,.12E-6,0
GALAXY 32 (G-32),2022-153B,2026-07-20T10:59:10.660128,1.00271752,.00014186,0.0102,33.2440,19.4710,319.3110,0,U,54244,999,1347,0,-.176E-5,0
GALAXY 35 (G-35),2022-170A,2026-07-20T10:58:33.218688,1.00272216,.00019938,0.0202,95.2696,21.4858,253.0042,0,U,54741,999,1322,0,-.164E-5,0
GALAXY 36 (G-36),2022-170B,2026-07-20T09:09:16.027200,1.00271706,.00027058,0.0200,136.3487,324.2650,245.8565,0,U,54742,999,1310,0,-.187E-5,0
GALAXY 37 (G-37),2023-112A,2026-07-20T11:52:38.468352,1.00272492,.00020624,0.0191,58.1540,58.9230,232.3435,0,U,57493,999,1087,0,.47E-6,0
